OBJECT_NAME,OBJECT_ID,EPOCH,MEAN_MOTION,ECCENTRICITY,INCLINATION,RA_OF_ASC_NODE,ARG_OF_PERICENTER,MEAN_ANOMALY,EPHEMERIS_TYPE,CLASSIFICATION_TYPE,NORAD_CAT_ID,ELEMENT_SET_NO,REV_AT_EPOCH,BSTAR,MEAN_MOTION_DOT,MEAN_MOTION_DDOT
STARLINK-30890,2023-177M,2026-07-20T09:29:04.942176,15.27577339,.00019028,43.0038,321.1033,265.4407,94.6227,0,U,58362,999,14847,.500176E-6,-.249E-5,0
STARLINK-30909,2023-177N,2026-07-20T14:17:06.384192,15.27585387,.00018474,43.0043,320.0280,271.8895,88.1745,0,U,58363,999,14855,-.36933362E-4,-.1279E-4,0
STARLINK-30904,2023-177P,2026-07-20T10:00:45.486432,15.10232152,.00108132,43.0007,342.5538,293.3027,66.6679,0,U,58364,999,14827,.65749133E-3,.10747E-3,0
STARLINK-30918,2023-177Q,2026-07-20T09:49:28.621920,15.27571551,.00014802,43.0021,321.2095,266.0875,93.9807,0,U,58365,999,14851,-.52514345E-4,-.1707E-4,0
STARLINK-30892,2023-177R,2026-07-20T14:22:39.251424,15.27582191,.00017338,43.0042,320.0483,267.5260,92.5394,0,U,58366,999,14856,.20713878E-4,.308E-5,0
STARLINK-30891,2023-177S,2026-07-20T14:43:00.702048,15.27575761,.00013046,43.0024,320.1556,269.9008,90.1695,0,U,58367,999,14849,.16811172E-4,.2E-5,0
STARLINK-30889,2023-177T,2026-07-20T08:20:49.837920,15.27575002,.00013543,43.0021,321.6036,291.0168,69.0539,0,U,58368,999,14851,-.3708234E-5,-.364E-5,0
STARLINK-30870,2023-177U,2026-07-19T18:24:31.074048,15.27581123,.00012044,43.0021,324.9794,266.8158,93.2556,0,U,58369,999,14842,.60213473E-4,.1395E-4,0
STARLINK-30888,2023-177V,2026-07-20T07:30:52.352352,15.27576490,.00016934,43.0053,321.3353,259.3822,100.6840,0,U,58370,999,14852,.7330102E-5,-.61E-6,0
STARLINK-30859,2023-177W,2026-07-20T08:41:10.580064,15.27579968,.00011372,43.0014,321.6742,283.6072,76.4653,0,U,58371,999,14852,.34532265E-4,.688E-5,0
STARLINK-30884,2023-177X,2026-07-19T17:01:28.398144,15.27574956,.00012008,43.0018,325.4038,271.6570,88.4144,0,U,58372,999,14841,-.893357E-6,-.287E-5,0
STARLINK-30852,2023-177Y,2026-07-20T07:40:07.144896,15.27577147,.00012566,43.0038,321.3606,265.5397,94.5311,0,U,58373,999,14851,.1429405E-4,.131E-5,0
STARLINK-30911,2023-178A,2026-07-20T10:26:12.509664,15.34398442,.00013597,53.1593,101.7641,87.2238,272.8921,0,U,58374,999,15024,.59933567E-4,.1649E-4,0
STARLINK-30894,2023-178B,2026-07-20T00:24:10.476288,15.34404105,.00018095,53.1607,104.1399,108.9156,251.2043,0,U,58375,999,15011,-.61013562E-4,-.2438E-4,0
STARLINK-30910,2023-178C,2026-07-20T02:55:24.452256,15.34396892,.00014661,53.1587,103.3735,97.9980,262.1189,0,U,58376,999,15020,.67603565E-4,.1908E-4,0
STARLINK-30914,2023-178D,2026-07-20T10:32:15.840672,15.34396396,.00009837,53.1591,101.7811,86.3060,273.8055,0,U,58377,999,15025,.862473E-5,-.85E-6,0
STARLINK-30920,2023-178E,2026-07-20T09:55:48.100224,15.34390233,.00013025,53.1604,91.7231,97.1474,262.9677,0,U,58378,999,15039,.54052991E-4,.145E-4,0
STARLINK-30882,2023-178F,2026-07-20T03:22:40.069920,15.34399658,.00012724,53.1598,103.4879,91.9114,268.2035,0,U,58379,999,15020,.4410153E-4,.1114E-4,0
STARLINK-30915,2023-178G,2026-07-20T05:06:47.445696,15.34389024,.00013209,53.1599,14.5498,89.7181,270.3973,0,U,58380,999,15142,.32068285E-4,.707E-5,0
STARLINK-30923,2023-178H,2026-07-20T04:04:07.651200,15.35365873,.00034051,53.1594,103.6351,75.3557,284.7824,0,U,58381,999,15013,.29227113E-3,.9817E-4,0
STARLINK-30927,2023-178J,2026-07-20T00:27:12.245472,15.34396666,.00012557,53.1597,104.1473,69.9080,290.2057,0,U,58382,999,15016,.5802972E-5,-.18E-5,0
STARLINK-30921,2023-178K,2026-07-20T11:02:34.125216,15.34391244,.00013863,53.1601,101.9264,100.6531,259.4628,0,U,58383,999,15023,.33861804E-4,.768E-5,0
STARLINK-30825,2023-178L,2026-07-19T23:38:44.014560,15.34388232,.00015325,53.1590,103.9129,86.3062,273.8116,0,U,58384,999,15018,.35628416E-4,.827E-5,0
STARLINK-30930,2023-178M,2026-07-20T10:08:00.989952,15.34409035,.00010148,53.1593,101.6905,70.3489,289.7623,0,U,58385,999,15012,-.83558229E-4,-.3199E-4,0
STARLINK-30929,2023-178N,2026-07-20T00:54:26.250048,15.34395632,.00012618,53.1594,104.0630,82.7135,277.4011,0,U,58386,999,15016,.42806054E-4,.107E-4,0
STARLINK-30898,2023-178P,2026-07-20T10:05:06.514656,15.34397122,.00013498,53.1585,102.2597,47.4010,312.7107,0,U,58387,999,15024,-.98572157E-4,-.3705E-4,0
STARLINK-30913,2023-178Q,2026-07-20T00:21:08.502336,15.34394771,.00011473,53.1596,104.1227,85.8333,274.2800,0,U,58388,999,15018,.13122451E-4,.67E-6,0
STARLINK-30938,2023-178R,2026-07-20T11:12:20.302560,15.34392357,.00011902,53.1609,103.3812,81.4292,278.6845,0,U,58389,999,15023,.104164E-3,.3144E-4,0
STARLINK-30868,2023-178S,2026-07-20T00:12:03.406464,15.34379795,.00012616,53.1597,104.0851,85.6690,274.4457,0,U,58390,999,15018,.97561471E-4,.2919E-4,0
STARLINK-30916,2023-178T,2026-07-19T22:59:27.192768,15.34392998,.00013212,53.1604,104.3778,96.3456,263.7697,0,U,58391,999,15017,.20815733E-4,.327E-5,0
