STARLINK-30890          
1 58362U 23177M   26201.39519609 -.00000249  00000+0  50018-6 0  9992
2 58362  43.0038 321.1033 0001902 265.4407  94.6227 15.27577339148470
STARLINK-30909          
1 58363U 23177N   26201.59521278 -.00001279  00000+0 -36933-4 0  9993
2 58363  43.0043 320.0280 0001847 271.8895  88.1745 15.27585387148553
STARLINK-30904          
1 58364U 23177P   26201.41719313  .00010747  00000+0  65749-3 0  9998
2 58364  43.0007 342.5538 0010813 293.3027  66.6679 15.10232152148275
STARLINK-30918          
1 58365U 23177Q   26201.40935905 -.00001707  00000+0 -52514-4 0  9990
2 58365  43.0021 321.2095 0001480 266.0875  93.9807 15.27571551148512
STARLINK-30892          
1 58366U 23177R   26201.59906541  .00000308  00000+0  20714-4 0  9996
2 58366  43.0042 320.0483 0001733 267.5260  92.5394 15.27582191148562
STARLINK-30891          
1 58367U 23177S   26201.61320257  .00000200  00000+0  16811-4 0  9998
2 58367  43.0024 320.1556 0001304 269.9008  90.1695 15.27575761148490
STARLINK-30889          
1 58368U 23177T   26201.34779905 -.00000364  00000+0 -37082-5 0  9994
2 58368  43.0021 321.6036 0001354 291.0168  69.0539 15.27575002148518
STARLINK-30870          
1 58369U 23177U   26200.76702632  .00001395  00000+0  60213-4 0  9997
2 58369  43.0021 324.9794 0001204 266.8158  93.2556 15.27581123148428
STARLINK-30888          
1 58370U 23177V   26201.31310593 -.00000061  00000+0  73301-5 0  9995
2 58370  43.0053 321.3353 0001693 259.3822 100.6840 15.27576490148525
STARLINK-30859          
1 58371U 23177W   26201.36192801  .00000688  00000+0  34532-4 0  9997
2 58371  43.0014 321.6742 0001137 283.6072  76.4653 15.27579968148523
STARLINK-30884          
1 58372U 23177X   26200.70935646 -.00000287  00000+0 -89336-6 0  9998
2 58372  43.0018 325.4038 0001200 271.6570  88.4144 15.27574956148417
STARLINK-30852          
1 58373U 23177Y   26201.31952714  .00000131  00000+0  14294-4 0  9997
2 58373  43.0038 321.3606 0001256 265.5397  94.5311 15.27577147148516
STARLINK-30911          
1 58374U 23178A   26201.43486701  .00001649  00000+0  59934-4 0  9995
2 58374  53.1593 101.7641 0001359  87.2238 272.8921 15.34398442150249
STARLINK-30894          
1 58375U 23178B   26201.01678792 -.00002438  00000+0 -61014-4 0  9994
2 58375  53.1607 104.1399 0001809 108.9156 251.2043 15.34404105150119
STARLINK-30910          
1 58376U 23178C   26201.12181079  .00001908  00000+0  67604-4 0  9994
2 58376  53.1587 103.3735 0001466  97.9980 262.1189 15.34396892150208
STARLINK-30914          
1 58377U 23178D   26201.43907223 -.00000085  00000+0  86247-5 0  9997
2 58377  53.1591 101.7811 0000983  86.3060 273.8055 15.34396396150250
STARLINK-30920          
1 58378U 23178E   26201.41375116  .00001450  00000+0  54053-4 0  9991
2 58378  53.1604  91.7231 0001302  97.1474 262.9677 15.34390233150393
STARLINK-30882          
1 58379U 23178F   26201.14074155  .00001114  00000+0  44102-4 0  9992
2 58379  53.1598 103.4879 0001272  91.9114 268.2035 15.34399658150201
STARLINK-30915          
1 58380U 23178G   26201.21304914  .00000707  00000+0  32068-4 0  9996
2 58380  53.1599  14.5498 0001320  89.7181 270.3973 15.34389024151422
STARLINK-30923          
1 58381U 23178H   26201.16953300  .00009817  00000+0  29227-3 0  9993
2 58381  53.1594 103.6351 0003405  75.3557 284.7824 15.35365873150138
STARLINK-30927          
1 58382U 23178J   26201.01889173 -.00000180  00000+0  58030-5 0  9995
2 58382  53.1597 104.1473 0001255  69.9080 290.2057 15.34396666150160
STARLINK-30921          
1 58383U 23178K   26201.46011719  .00000768  00000+0  33862-4 0  9994
2 58383  53.1601 101.9264 0001386 100.6531 259.4628 15.34391244150235
STARLINK-30825          
1 58384U 23178L   26200.98523165  .00000827  00000+0  35628-4 0  9992
2 58384  53.1590 103.9129 0001532  86.3062 273.8116 15.34388232150186
STARLINK-30930          
1 58385U 23178M   26201.42223368 -.00003199  00000+0 -83558-4 0  9997
2 58385  53.1593 101.6905 0001014  70.3489 289.7623 15.34409035150126
STARLINK-30929          
1 58386U 23178N   26201.03780382  .00001070  00000+0  42806-4 0  9994
2 58386  53.1594 104.0630 0001261  82.7135 277.4011 15.34395632150165
STARLINK-30898          
1 58387U 23178P   26201.42021429 -.00003705  00000+0 -98572-4 0  9998
2 58387  53.1585 102.2597 0001349  47.4010 312.7107 15.34397122150249
STARLINK-30913          
1 58388U 23178Q   26201.01468174  .00000067  00000+0  13122-4 0  9990
2 58388  53.1596 104.1227 0001147  85.8333 274.2800 15.34394771150185
STARLINK-30938          
1 58389U 23178R   26201.46690165  .00003144  00000+0  10416-3 0  9998
2 58389  53.1609 103.3812 0001190  81.4292 278.6845 15.34392357150237
STARLINK-30868          
1 58390U 23178S   26201.00837276  .00002919  00000+0  97561-4 0  9992
2 58390  53.1597 104.0851 0001261  85.6690 274.4457 15.34379795150181
STARLINK-30916          
1 58391U 23178T   26200.95795362  .00000327  00000+0  20816-4 0  9995
2 58391  53.1604 104.3778 0001321  96.3456 263.7697 15.34392998150174
